{"type": "FeatureCollection", "features": [{"type": "Feature", "properties": {"norad_id": 24876, "name": "GPS BIIR-2  (PRN 13)", "group": "gnss", "lat": 32.674673250539286, "lon": 131.99049587077957, "alt_km": 19931.99561159874, "timestamp": "2025-12-02T19:35:50.798078+00:00", "meta": {"OBJECT_NAME": "GPS BIIR-2  (PRN 13)", "OBJECT_ID": "1997-035A", "EPOCH": "2025-12-01T18:20:01.306464", "MEAN_MOTION": 2.00563436, "ECCENTRICITY": 0.00966584, "INCLINATION": 55.8898, "RA_OF_ASC_NODE": 106.2982, "ARG_OF_PERICENTER": 57.0223, "MEAN_ANOMALY": 303.8787, "EPHEMERIS_TYPE": 0, "CLASSIFICATION_TYPE": "U", "NORAD_CAT_ID": 24876, "ELEMENT_SET_NO": 999, "REV_AT_EPOCH": 20799, "BSTAR": 0, "MEAN_MOTION_DOT": 3.5e-07, "MEAN_MOTION_DDOT": 0}, "tle": {"line1": "1 24876U 97035A   25335.76390401  .00000035  00000+0  00000+0 0  9995", "line2": "2 24876  55.8898 106.2982 0096658  57.0223 303.8787  2.00563436207995"}}, "geometry": {"type": "Point", "coordinates": [131.99049587077957, 32.674673250539286]}}, {"type": "Feature", "properties": {"norad_id": 26360, "name": "GPS BIIR-4  (PRN 20)", "group": "gnss", "lat": 37.29815438180594, "lon": 175.084602951374, "alt_km": 20209.7570893384, "timestamp": "2025-12-02T19:35:50.798123+00:00", "meta": {"OBJECT_NAME": "GPS BIIR-4  (PRN 20)", "OBJECT_ID": "2000-025A", "EPOCH": "2025-12-02T03:30:27.357408", "MEAN_MOTION": 2.00568432, "ECCENTRICITY": 0.00387714, "INCLINATION": 55.0389, "RA_OF_ASC_NODE": 27.2666, "ARG_OF_PERICENTER": 240.9431, "MEAN_ANOMALY": 127.7379, "EPHEMERIS_TYPE": 0, "CLASSIFICATION_TYPE": "U", "NORAD_CAT_ID": 26360, "ELEMENT_SET_NO": 999, "REV_AT_EPOCH": 18732, "BSTAR": 0, "MEAN_MOTION_DOT": -6.9e-07, "MEAN_MOTION_DDOT": 0}, "tle": {"line1": "1 26360U 00025A   25336.14614997 -.00000069  00000+0  00000+0 0  9998", "line2": "2 26360  55.0389  27.2666 0038771 240.9431 127.7379  2.00568432187324"}}, "geometry": {"type": "Point", "coordinates": [175.084602951374, 37.29815438180594]}}, {"type": "Feature", "properties": {"norad_id": 26407, "name": "GPS BIIR-5  (PRN 22)", "group": "gnss", "lat": -21.80634013015103, "lon": -153.3588765820535, "alt_km": 19896.82627208582, "timestamp": "2025-12-02T19:35:50.798141+00:00", "meta": {"OBJECT_NAME": "GPS BIIR-5  (PRN 22)", "OBJECT_ID": "2000-040A", "EPOCH": "2025-12-02T02:20:38.477184", "MEAN_MOTION": 2.00567697, "ECCENTRICITY": 0.01265976, "INCLINATION": 54.8935, "RA_OF_ASC_NODE": 222.9923, "ARG_OF_PERICENTER": 301.6113, "MEAN_ANOMALY": 231.635, "EPHEMERIS_TYPE": 0, "CLASSIFICATION_TYPE": "U", "NORAD_CAT_ID": 26407, "ELEMENT_SET_NO": 999, "REV_AT_EPOCH": 18599, "BSTAR": 0, "MEAN_MOTION_DOT": 5.3e-07, "MEAN_MOTION_DDOT": 0}, "tle": {"line1": "1 26407U 00040A   25336.09766756  .00000053  00000+0  00000+0 0  9994", "line2": "2 26407  54.8935 222.9923 0126597 301.6113 231.6350  2.00567697185993"}}, "geometry": {"type": "Point", "coordinates": [-153.3588765820535, -21.80634013015103]}}, {"type": "Feature", "properties": {"norad_id": 27663, "name": "GPS BIIR-8  (PRN 16)", "group": "gnss", "lat": 50.51154877524504, "lon": -15.610276387802127, "alt_km": 19963.445000696927, "timestamp": "2025-12-02T19:35:50.798156+00:00", "meta": {"OBJECT_NAME": "GPS BIIR-8  (PRN 16)", "OBJECT_ID": "2003-005A", "EPOCH": "2025-12-01T07:27:05.783040", "MEAN_MOTION": 2.00571429, "ECCENTRICITY": 0.01469845, "INCLINATION": 54.9264, "RA_OF_ASC_NODE": 222.833, "ARG_OF_PERICENTER": 51.6397, "MEAN_ANOMALY": 48.9538, "EPHEMERIS_TYPE": 0, "CLASSIFICATION_TYPE": "U", "NORAD_CAT_ID": 27663, "ELEMENT_SET_NO": 999, "REV_AT_EPOCH": 16734, "BSTAR": 0, "MEAN_MOTION_DOT": 4.8e-07, "MEAN_MOTION_DDOT": 0}, "tle": {"line1": "1 27663U 03005A   25335.31048360  .00000048  00000+0  00000+0 0  9995", "line2": "2 27663  54.9264 222.8330 0146984  51.6397  48.9538  2.00571429167347"}}, "geometry": {"type": "Point", "coordinates": [-15.610276387802127, 50.51154877524504]}}, {"type": "Feature", "properties": {"norad_id": 28190, "name": "GPS BIIR-11 (PRN 19)", "group": "gnss", "lat": -54.977126462575306, "lon": -169.05597765886617, "alt_km": 20240.242649642605, "timestamp": "2025-12-02T19:35:50.798171+00:00", "meta": {"OBJECT_NAME": "GPS BIIR-11 (PRN 19)", "OBJECT_ID": "2004-009A", "EPOCH": "2025-11-26T05:14:39.537024", "MEAN_MOTION": 2.00561394, "ECCENTRICITY": 0.01080929, "INCLINATION": 55.0011, "RA_OF_ASC_NODE": 283.885, "ARG_OF_PERICENTER": 167.3745, "MEAN_ANOMALY": 15.773, "EPHEMERIS_TYPE": 0, "CLASSIFICATION_TYPE": "U", "NORAD_CAT_ID": 28190, "ELEMENT_SET_NO": 999, "REV_AT_EPOCH": 15887, "BSTAR": 0, "MEAN_MOTION_DOT": -2.4e-07, "MEAN_MOTION_DDOT": 0}, "tle": {"line1": "1 28190U 04009A   25330.21851316 -.00000024  00000+0  00000+0 0  9998", "line2": "2 28190  55.0011 283.8850 0108092 167.3745  15.7730  2.00561394158873"}}, "geometry": {"type": "Point", "coordinates": [-169.05597765886617, -54.977126462575306]}}, {"type": "Feature", "properties": {"norad_id": 28474, "name": "GPS BIIR-13 (PRN 02)", "group": "gnss", "lat": -26.05983493128541, "lon": -47.04703403724465, "alt_km": 19756.129669405345, "timestamp": "2025-12-02T19:35:50.798184+00:00", "meta": {"OBJECT_NAME": "GPS BIIR-13 (PRN 02)", "OBJECT_ID": "2004-045A", "EPOCH": "2025-12-01T10:47:33.521856", "MEAN_MOTION": 2.00568829, "ECCENTRICITY": 0.01705137, "INCLINATION": 55.2462, "RA_OF_ASC_NODE": 332.8602, "ARG_OF_PERICENTER": 308.7614, "MEAN_ANOMALY": 111.3219, "EPHEMERIS_TYPE": 0, "CLASSIFICATION_TYPE": "U", "NORAD_CAT_ID": 28474, "ELEMENT_SET_NO": 999, "REV_AT_EPOCH": 15446, "BSTAR": 0, "MEAN_MOTION_DOT": -5.6e-07, "MEAN_MOTION_DDOT": 0}, "tle": {"line1": "1 28474U 04045A   25335.44969354 -.00000056  00000+0  00000+0 0  9990", "line2": "2 28474  55.2462 332.8602 0170513 308.7614 111.3219  2.00568829154469"}}, "geometry": {"type": "Point", "coordinates": [-47.04703403724465, -26.05983493128541]}}, {"type": "Feature", "properties": {"norad_id": 28874, "name": "GPS BIIRM-1 (PRN 17)", "group": "gnss", "lat": -52.151475011151184, "lon": -142.99214104640603, "alt_km": 19839.054459530023, "timestamp": "2025-12-02T19:35:50.798196+00:00", "meta": {"OBJECT_NAME": "GPS BIIRM-1 (PRN 17)", "OBJECT_ID": "2005-038A", "EPOCH": "2025-11-30T16:16:45.058656", "MEAN_MOTION": 2.00548966, "ECCENTRICITY": 0.01328775, "INCLINATION": 55.0429, "RA_OF_ASC_NODE": 281.1867, "ARG_OF_PERICENTER": 293.3584, "MEAN_ANOMALY": 248.5646, "EPHEMERIS_TYPE": 0, "CLASSIFICATION_TYPE": "U", "NORAD_CAT_ID": 28874, "ELEMENT_SET_NO": 999, "REV_AT_EPOCH": 14785, "BSTAR": 0, "MEAN_MOTION_DOT": -4.1e-07, "MEAN_MOTION_DDOT": 0}, "tle": {"line1": "1 28874U 05038A   25334.67829929 -.00000041  00000+0  00000+0 0  9998", "line2": "2 28874  55.0429 281.1867 0132877 293.3584 248.5646  2.00548966147851"}}, "geometry": {"type": "Point", "coordinates": [-142.99214104640603, -52.151475011151184]}}, {"type": "Feature", "properties": {"norad_id": 28899, "name": "INMARSAT 4-F2 (SOUTHPAN/PRN 122)", "group": "gnss", "lat": 4.655528335336214, "lon": 149.3777463821098, "alt_km": 35788.37124479543, "timestamp": "2025-12-02T19:35:50.798210+00:00", "meta": {"OBJECT_NAME": "INMARSAT 4-F2 (SOUTHPAN/PRN 122)", "OBJECT_ID": "2005-044A", "EPOCH": "2025-12-01T23:03:25.200576", "MEAN_MOTION": 1.00273188, "ECCENTRICITY": 0.0003522, "INCLINATION": 4.8373, "RA_OF_ASC_NODE": 43.6514, "ARG_OF_PERICENTER": 208.1176, "MEAN_ANOMALY": 308.6606, "EPHEMERIS_TYPE": 0, "CLASSIFICATION_TYPE": "U", "NORAD_CAT_ID": 28899, "ELEMENT_SET_NO": 999, "REV_AT_EPOCH": 7354, "BSTAR": 0, "MEAN_MOTION_DOT": -2.41e-06, "MEAN_MOTION_DDOT": 0}, "tle": {"line1": "1 28899U 05044A   25335.96070834 -.00000241  00000+0  00000+0 0  9990", "line2": "2 28899   4.8373  43.6514 0003522 208.1176 308.6606  1.00273188 73541"}}, "geometry": {"type": "Point", "coordinates": [149.3777463821098, 4.655528335336214]}}, {"type": "Feature", "properties": {"norad_id": 29486, "name": "GPS BIIRM-2 (PRN 31)", "group": "gnss", "lat": -8.448928922053717, "lon": -14.823203500310287, "alt_km": 20396.969275386517, "timestamp": "2025-12-02T19:35:50.798224+00:00", "meta": {"OBJECT_NAME": "GPS BIIRM-2 (PRN 31)", "OBJECT_ID": "2006-042A", "EPOCH": "2025-12-01T13:45:36.640800", "MEAN_MOTION": 2.00554492, "ECCENTRICITY": 0.01073693, "INCLINATION": 54.6925, "RA_OF_ASC_NODE": 159.184, "ARG_OF_PERICENTER": 51.6942, "MEAN_ANOMALY": 320.2253, "EPHEMERIS_TYPE": 0, "CLASSIFICATION_TYPE": "U", "NORAD_CAT_ID": 29486, "ELEMENT_SET_NO": 999, "REV_AT_EPOCH": 14043, "BSTAR": 0, "MEAN_MOTION_DOT": 1.26e-06, "MEAN_MOTION_DDOT": 0}, "tle": {"line1": "1 29486U 06042A   25335.57334075  .00000126  00000+0  00000+0 0  9990", "line2": "2 29486  54.6925 159.1840 0107369  51.6942 320.2253  2.00554492140433"}}, "geometry": {"type": "Point", "coordinates": [-14.823203500310287, -8.448928922053717]}}, {"type": "Feature", "properties": {"norad_id": 29601, "name": "GPS BIIRM-3 (PRN 12)", "group": "gnss", "lat": -48.8567296050865, "lon": 95.09782239049986, "alt_km": 20404.084366028634, "timestamp": "2025-12-02T19:35:50.798237+00:00", "meta": {"OBJECT_NAME": "GPS BIIRM-3 (PRN 12)", "OBJECT_ID": "2006-052A", "EPOCH": "2025-12-01T23:28:25.341312", "MEAN_MOTION": 2.0057269, "ECCENTRICITY": 0.0087496, "INCLINATION": 54.9731, "RA_OF_ASC_NODE": 221.8254, "ARG_OF_PERICENTER": 87.3285, "MEAN_ANOMALY": 273.7543, "EPHEMERIS_TYPE": 0, "CLASSIFICATION_TYPE": "U", "NORAD_CAT_ID": 29601, "ELEMENT_SET_NO": 999, "REV_AT_EPOCH": 13945, "BSTAR": 0, "MEAN_MOTION_DOT": 5.5e-07, "MEAN_MOTION_DDOT": 0}, "tle": {"line1": "1 29601U 06052A   25335.97807108  .00000055  00000+0  00000+0 0  9997", "line2": "2 29601  54.9731 221.8254 0087496  87.3285 273.7543  2.00572690139454"}}, "geometry": {"type": "Point", "coordinates": [95.09782239049986, -48.8567296050865]}}]}